ONEWEB-0388             
1 49314U 21090AM  26165.14772161 -.00000017  00000+0 -75446-4 0  9991
2 49314  87.9167 305.5751 0001864  93.7678 266.3668 13.19724757226010
ONEWEB-0389             
1 50469U 21132A   26165.08533375  .00000071  00000+0  15030-3 0  9996
2 50469  87.9135   6.4852 0002172  82.7547 277.3831 13.17648476217670
ONEWEB-0390             
1 50470U 21132B   26165.08702104  .00000060  00000+0  12053-3 0  9996
2 50470  87.9134   6.4858 0001949  94.1645 265.9709 13.17648593217671
ONEWEB-0391             
1 50471U 21132C   26165.08870971  .00000024  00000+0  28766-4 0  9994
2 50471  87.9136   6.4951 0002691  87.5462 272.5978 13.17648444217673
ONEWEB-0392             
1 50472U 21132D   26165.27096438  .00000003  00000+0 -25806-4 0  9994
2 50472  87.9143   6.4270 0002258  84.1515 275.9874 13.17648684217732
ONEWEB-0393             
1 50473U 21132E   26165.09461659 -.00000009  00000+0 -55639-4 0  9990
2 50473  87.9137   6.4793 0002019  85.3148 274.8214 13.17649720217701
ONEWEB-0394             
1 50474U 21132F   26165.21481443  .00001132  00000+0  28398-2 0  9994
2 50474  87.9171 336.0333 0001876  87.0933 273.0414 13.18677157221202
ONEWEB-0395             
1 50475U 21132G   26165.11517589  .00000242  00000+0  64659-3 0  9997
2 50475  87.8887  21.6790 0002008  89.3150 270.8208 13.11419264215311
ONEWEB-0396             
1 50476U 21132H   26165.20805352 -.00000030  00000+0 -10953-3 0  9991
2 50476  87.9168 336.0474 0001958  87.7927 272.3430 13.18683914221249
ONEWEB-0397             
1 50477U 21132J   26165.22323122 -.00000016  00000+0 -72374-4 0  9994
2 50477  87.9169 336.0444 0001884  84.5817 275.5530 13.18684670221223
ONEWEB-0398             
1 50478U 21132K   26165.08294589 -.00000342  00000+0 -10021-2 0  9994
2 50478  87.8890  21.6756 0001908  94.6219 265.5127 13.11414727215201
ONEWEB-0399             
1 50479U 21132L   26165.14569376  .00000066  00000+0  15105-3 0  9991
2 50479  87.8896  21.6739 0002191  75.8223 284.3148 13.11413913215208
ONEWEB-0400             
1 50480U 21132M   26164.97368506 -.00000031  00000+0 -11112-3 0  9993
2 50480  87.9169 336.0840 0001920  97.5969 262.5382 13.18685067221187
ONEWEB-0401             
1 50481U 21132N   26164.94333005  .00000004  00000+0 -22588-4 0  9996
2 50481  87.9170 336.0870 0001650  87.0308 273.1013 13.18685207221189
ONEWEB-0402             
1 50482U 21132P   26165.20975149  .00000031  00000+0  46745-4 0  9998
2 50482  87.9168 336.0234 0001580  79.2042 280.9268 13.18685459221245
ONEWEB-0403             
1 50483U 21132Q   26165.00740320 -.00000035  00000+0 -12103-3 0  9994
2 50483  87.9168 336.0878 0001974  90.4710 269.6648 13.18684497221173
