[{"OBJECT_NAME":"ONEWEB-0388","OBJECT_ID":"2021-090AM","EPOCH":"2026-06-14T03:32:43.147104","MEAN_MOTION":13.19724757,"ECCENTRICITY":0.0001864,"INCLINATION":87.9167,"RA_OF_ASC_NODE":305.5751,"ARG_OF_PERICENTER":93.7678,"MEAN_ANOMALY":266.3668,"EPHEMERIS_TYPE":0,"CLASSIFICATION_TYPE":"U","NORAD_CAT_ID":49314,"ELEMENT_SET_NO":999,"REV_AT_EPOCH":22601,"BSTAR":-7.544600000000001e-05,"MEAN_MOTION_DOT":-1.7e-07,"MEAN_MOTION_DDOT":0.0},{"OBJECT_NAME":"ONEWEB-0389","OBJECT_ID":"2021-132A","EPOCH":"2026-06-14T02:02:52.836000","MEAN_MOTION":13.17648476,"ECCENTRICITY":0.0002172,"INCLINATION":87.9135,"RA_OF_ASC_NODE":6.4852,"ARG_OF_PERICENTER":82.7547,"MEAN_ANOMALY":277.3831,"EPHEMERIS_TYPE":0,"CLASSIFICATION_TYPE":"U","NORAD_CAT_ID":50469,"ELEMENT_SET_NO":999,"REV_AT_EPOCH":21767,"BSTAR":0.0001503,"MEAN_MOTION_DOT":7.1e-07,"MEAN_MOTION_DDOT":0.0},{"OBJECT_NAME":"ONEWEB-0390","OBJECT_ID":"2021-132B","EPOCH":"2026-06-14T02:05:18.617856","MEAN_MOTION":13.17648593,"ECCENTRICITY":0.0001949,"INCLINATION":87.9134,"RA_OF_ASC_NODE":6.4858,"ARG_OF_PERICENTER":94.1645,"MEAN_ANOMALY":265.9709,"EPHEMERIS_TYPE":0,"CLASSIFICATION_TYPE":"U","NORAD_CAT_ID":50470,"ELEMENT_SET_NO":999,"REV_AT_EPOCH":21767,"BSTAR":0.00012053,"MEAN_MOTION_DOT":6e-07,"MEAN_MOTION_DDOT":0.0},{"OBJECT_NAME":"ONEWEB-0391","OBJECT_ID":"2021-132C","EPOCH":"2026-06-14T02:07:44.518944","MEAN_MOTION":13.17648444,"ECCENTRICITY":0.0002691,"INCLINATION":87.9136,"RA_OF_ASC_NODE":6.4951,"ARG_OF_PERICENTER":87.5462,"MEAN_ANOMALY":272.5978,"EPHEMERIS_TYPE":0,"CLASSIFICATION_TYPE":"U","NORAD_CAT_ID":50471,"ELEMENT_SET_NO":999,"REV_AT_EPOCH":21767,"BSTAR":2.8766000000000005e-05,"MEAN_MOTION_DOT":2.4e-07,"MEAN_MOTION_DDOT":0.0},{"OBJECT_NAME":"ONEWEB-0392","OBJECT_ID":"2021-132D","EPOCH":"2026-06-14T06:30:11.322432","MEAN_MOTION":13.17648684,"ECCENTRICITY":0.0002258,"INCLINATION":87.9143,"RA_OF_ASC_NODE":6.427,"ARG_OF_PERICENTER":84.1515,"MEAN_ANOMALY":275.9874,"EPHEMERIS_TYPE":0,"CLASSIFICATION_TYPE":"U","NORAD_CAT_ID":50472,"ELEMENT_SET_NO":999,"REV_AT_EPOCH":21773,"BSTAR":-2.5806000000000003e-05,"MEAN_MOTION_DOT":3e-08,"MEAN_MOTION_DDOT":0.0},{"OBJECT_NAME":"ONEWEB-0393","OBJECT_ID":"2021-132E","EPOCH":"2026-06-14T02:16:14.873376","MEAN_MOTION":13.1764972,"ECCENTRICITY":0.0002019,"INCLINATION":87.9137,"RA_OF_ASC_NODE":6.4793,"ARG_OF_PERICENTER":85.3148,"MEAN_ANOMALY":274.8214,"EPHEMERIS_TYPE":0,"CLASSIFICATION_TYPE":"U","NORAD_CAT_ID":50473,"ELEMENT_SET_NO":999,"REV_AT_EPOCH":21770,"BSTAR":-5.563900000000001e-05,"MEAN_MOTION_DOT":-9e-08,"MEAN_MOTION_DDOT":0.0},{"OBJECT_NAME":"ONEWEB-0394","OBJECT_ID":"2021-132F","EPOCH":"2026-06-14T05:09:19.966752","MEAN_MOTION":13.18677157,"ECCENTRICITY":0.0001876,"INCLINATION":87.9171,"RA_OF_ASC_NODE":336.0333,"ARG_OF_PERICENTER":87.0933,"MEAN_ANOMALY":273.0414,"EPHEMERIS_TYPE":0,"CLASSIFICATION_TYPE":"U","NORAD_CAT_ID":50474,"ELEMENT_SET_NO":999,"REV_AT_EPOCH":22120,"BSTAR":0.0028398,"MEAN_MOTION_DOT":1.132e-05,"MEAN_MOTION_DDOT":0.0},{"OBJECT_NAME":"ONEWEB-0395","OBJECT_ID":"2021-132G","EPOCH":"2026-06-14T02:45:51.196896","MEAN_MOTION":13.11419264,"ECCENTRICITY":0.0002008,"INCLINATION":87.8887,"RA_OF_ASC_NODE":21.679,"ARG_OF_PERICENTER":89.315,"MEAN_ANOMALY":270.8208,"EPHEMERIS_TYPE":0,"CLASSIFICATION_TYPE":"U","NORAD_CAT_ID":50475,"ELEMENT_SET_NO":999,"REV_AT_EPOCH":21531,"BSTAR":0.0006465900000000001,"MEAN_MOTION_DOT":2.42e-06,"MEAN_MOTION_DDOT":0.0},{"OBJECT_NAME":"ONEWEB-0396","OBJECT_ID":"2021-132H","EPOCH":"2026-06-14T04:59:35.824128","MEAN_MOTION":13.18683914,"ECCENTRICITY":0.0001958,"INCLINATION":87.9168,"RA_OF_ASC_NODE":336.0474,"ARG_OF_PERICENTER":87.7927,"MEAN_ANOMALY":272.343,"EPHEMERIS_TYPE":0,"CLASSIFICATION_TYPE":"U","NORAD_CAT_ID":50476,"ELEMENT_SET_NO":999,"REV_AT_EPOCH":22124,"BSTAR":-0.00010953,"MEAN_MOTION_DOT":-3e-07,"MEAN_MOTION_DDOT":0.0},{"OBJECT_NAME":"ONEWEB-0397","OBJECT_ID":"2021-132J","EPOCH":"2026-06-14T05:21:27.177408","MEAN_MOTION":13.1868467,"ECCENTRICITY":0.0001884,"INCLINATION":87.9169,"RA_OF_ASC_NODE":336.0444,"ARG_OF_PERICENTER":84.5817,"MEAN_ANOMALY":275.553,"EPHEMERIS_TYPE":0,"CLASSIFICATION_TYPE":"U","NORAD_CAT_ID":50477,"ELEMENT_SET_NO":999,"REV_AT_EPOCH":22122,"BSTAR":-7.237400000000001e-05,"MEAN_MOTION_DOT":-1.6e-07,"MEAN_MOTION_DDOT":0.0},{"OBJECT_NAME":"ONEWEB-0398","OBJECT_ID":"2021-132K","EPOCH":"2026-06-14T01:59:26.524896","MEAN_MOTION":13.11414727,"ECCENTRICITY":0.0001908,"INCLINATION":87.889,"RA_OF_ASC_NODE":21.6756,"ARG_OF_PERICENTER":94.6219,"MEAN_ANOMALY":265.5127,"EPHEMERIS_TYPE":0,"CLASSIFICATION_TYPE":"U","NORAD_CAT_ID":50478,"ELEMENT_SET_NO":999,"REV_AT_EPOCH":21520,"BSTAR":-0.0010021,"MEAN_MOTION_DOT":-3.42e-06,"MEAN_MOTION_DDOT":0.0},{"OBJECT_NAME":"ONEWEB-0399","OBJECT_ID":"2021-132L","EPOCH":"2026-06-14T03:29:47.940864","MEAN_MOTION":13.11413913,"ECCENTRICITY":0.0002191,"INCLINATION":87.8896,"RA_OF_ASC_NODE":21.6739,"ARG_OF_PERICENTER":75.8223,"MEAN_ANOMALY":284.3148,"EPHEMERIS_TYPE":0,"CLASSIFICATION_TYPE":"U","NORAD_CAT_ID":50479,"ELEMENT_SET_NO":999,"REV_AT_EPOCH":21520,"BSTAR":0.00015104999999999999,"MEAN_MOTION_DOT":6.6e-07,"MEAN_MOTION_DDOT":0.0},{"OBJECT_NAME":"ONEWEB-0400","OBJECT_ID":"2021-132M","EPOCH":"2026-06-13T23:22:06.389184","MEAN_MOTION":13.18685067,"ECCENTRICITY":0.000192,"INCLINATION":87.9169,"RA_OF_ASC_NODE":336.084,"ARG_OF_PERICENTER":97.5969,"MEAN_ANOMALY":262.5382,"EPHEMERIS_TYPE":0,"CLASSIFICATION_TYPE":"U","NORAD_CAT_ID":50480,"ELEMENT_SET_NO":999,"REV_AT_EPOCH":22118,"BSTAR":-0.00011111999999999999,"MEAN_MOTION_DOT":-3.1e-07,"MEAN_MOTION_DDOT":0.0},{"OBJECT_NAME":"ONEWEB-0401","OBJECT_ID":"2021-132N","EPOCH":"2026-06-13T22:38:23.716320","MEAN_MOTION":13.18685207,"ECCENTRICITY":0.000165,"INCLINATION":87.917,"RA_OF_ASC_NODE":336.087,"ARG_OF_PERICENTER":87.0308,"MEAN_ANOMALY":273.1013,"EPHEMERIS_TYPE":0,"CLASSIFICATION_TYPE":"U","NORAD_CAT_ID":50481,"ELEMENT_SET_NO":999,"REV_AT_EPOCH":22118,"BSTAR":-2.2588e-05,"MEAN_MOTION_DOT":4e-08,"MEAN_MOTION_DDOT":0.0},{"OBJECT_NAME":"ONEWEB-0402","OBJECT_ID":"2021-132P","EPOCH":"2026-06-14T05:02:02.528736","MEAN_MOTION":13.18685459,"ECCENTRICITY":0.000158,"INCLINATION":87.9168,"RA_OF_ASC_NODE":336.0234,"ARG_OF_PERICENTER":79.2042,"MEAN_ANOMALY":280.9268,"EPHEMERIS_TYPE":0,"CLASSIFICATION_TYPE":"U","NORAD_CAT_ID":50482,"ELEMENT_SET_NO":999,"REV_AT_EPOCH":22124,"BSTAR":4.6745e-05,"MEAN_MOTION_DOT":3.1e-07,"MEAN_MOTION_DDOT":0.0},{"OBJECT_NAME":"ONEWEB-0403","OBJECT_ID":"2021-132Q","EPOCH":"2026-06-14T00:10:39.636480","MEAN_MOTION":13.18684497,"ECCENTRICITY":0.0001974,"INCLINATION":87.9168,"RA_OF_ASC_NODE":336.0878,"ARG_OF_PERICENTER":90.471,"MEAN_ANOMALY":269.6648,"EPHEMERIS_TYPE":0,"CLASSIFICATION_TYPE":"U","NORAD_CAT_ID":50483,"ELEMENT_SET_NO":999,"REV_AT_EPOCH":22117,"BSTAR":-0.00012103,"MEAN_MOTION_DOT":-3.5e-07,"MEAN_MOTION_DDOT":0.0}]